ONEWEB-0281             
1 48999U 21060AJ  24052.46022534  .00000110  00000+0  25374-3 0  9992
2 48999  87.9065  37.2750 0002080  90.3568 269.7802 13.16596792128218
ONEWEB-0282             
1 49000U 21060AK  24052.49030280  .00000085  00000+0  18915-3 0  9990
2 49000  87.9066  37.2858 0001914  72.7483 287.3857 13.16595751128194
ONEWEB-0283             
1 49001U 21060AL  24052.47921515  .00000185  00000+0  45100-3 0  9996
2 49001  87.9064  37.2956 0002137  79.8618 280.2754 13.16597421128204
ONEWEB-0284             
1 49002U 21060AM  24052.85287859  .00000074  00000+0  15943-3 0  9994
2 49002  87.9056  37.2116 0001801  76.8874 283.2457 13.16594169129549
ONEWEB-0285             
1 49075U 21075A   24052.82868555  .00000275  00000+0  73022-3 0  9990
2 49075  87.9044 159.0889 0001738 106.8527 253.2793 13.12442266125175
ONEWEB-0286             
1 49076U 21075B   24052.34251975  .00000152  00000+0  38637-3 0  9997
2 49076  87.9041 159.1916 0001812 120.4562 239.6745 13.12445361123485
ONEWEB-0287             
1 49077U 21075C   24052.63076718  .00000058  00000+0  11601-3 0  9997
2 49077  87.9256 174.2411 0001382 117.2081 242.9191 13.17649456122144
ONEWEB-0288             
1 49078U 21075D   24052.78405887 -.00000437  00000+0 -12506-2 0  9994
2 49078  87.9040 159.1080 0001562 110.8044 249.3252 13.12444628125150
